COSMOS 2588             
1 64095U 25109A   26068.81179522  .00009169  00000+0  32611-3 0  9998
2 64095  72.9704  73.5401 0005019 308.6780  51.3966 15.29122656 44425
STARLINK-34223          
1 64336U 25124V   26068.81796389  .00025547  00000+0  93483-3 0  9991
2 64336  42.9923 117.2018 0000917 311.0752  49.0020 15.27573927 41849
